HELIOS 1B               
1 25977U 99064A   20244.00551422  .00000033  00000-0  11298-4 0  9990
2 25977  98.2902  41.5262 0002566  97.6682 262.4822 14.82491699117467
TERRA                   
1 25994U 99068A   20244.08890157 -.00000021  00000-0  54294-5 0  9994
2 25994  98.2085 317.3195 0001310 108.2581 251.8762 14.57112256101188
SL-16 R/B               
1 26070U 00006B   20243.86433189 -.00000245  00000-0 -10068-3 0  9995
2 26070  71.0039  16.8861 0016334   3.1444 356.9778 14.15464942 63161
MTI                     
1 26102U 00014A   20243.64008486  .00004480  00000-0  65151-4 0  9991
2 26102  97.4929 129.5015 0007101 329.1857  30.9039 15.56321762136057
TITAN 4B R/B            
1 26474U 00047B   20243.53328675 -.00000000  00000-0  10920-4 0  9991
2 26474  67.9923 231.7773 0051497 118.5375 242.0966 14.95981029 90328
ENVISAT                 
1 27386U 02009A   20244.01505226  .00000022  00000-0  20634-4 0  9993
2 27386  98.1378 247.1468 0001349  85.5722 331.4290 14.37990349969333
IDEFIX & ARIANE 42P R/B 
1 27422U 02021B   20244.15082433 -.00000018  00000-0  92621-5 0  9995
2 27422  98.3576 202.1504 0012675  15.9804 344.1776 14.29292952953946
AQUA                    
1 27424U 02022A   20243.91974240  .00000049  00000-0  20919-4 0  9990
2 27424  98.2059 183.4853 0002617  96.4942 354.2703 14.57112727974715
CZ-4B R/B               
1 27432U 02024C   20243.91432733 -.00000014  00000-0  17004-4 0  9991
2 27432  99.0900 247.3760 0049935 327.3480  90.9020 14.14096357944178
MIDORI II (ADEOS-II)    
1 27597U 02056A   20244.11779014  .00000006  00000-0  19896-4 0  9998
2 27597  98.5243 189.8458 0001956 103.9997 256.1402 14.27457464922462
H-2A R/B                
1 27601U 02056E   20243.74364559  .00000040  00000-0  29090-4 0  9991
2 27601  98.2214 275.6752 0073172  57.0164  58.2911 14.31965259925323
CZ-4B R/B               
1 28059U 03049C   20243.78461769  .00000005  00000-0  13078-4 0  9997
2 28059  98.4820 161.1455 0048870 271.5452  88.0146 14.52608349893620
CZ-2C R/B               
1 28222U 04012C   20243.91286837  .00000417  00000-0  28797-4 0  9997
2 28222  97.6838 206.6848 0048153 133.9968 287.9939 15.10447376897237
SL-16 R/B               
1 28353U 04021B   20243.89871941  .00000254  00000-0  15776-3 0  9996
2 28353  71.0017 143.1940 0006656 235.3270 124.7226 14.14238629837660
CZ-4B R/B               
1 28415U 04035C   20243.74195268  .00000455  00000-0  33800-4 0  9997
2 28415  97.6077 284.4807 0053075  99.0053 261.7186 15.06895409874824
CZ-2C R/B               
1 28480U 04046B   20243.94705880 -.00000047  00000-0 -26312-5 0  9990
2 28480  98.0744 273.1011 0142052   5.0396  55.4271 14.25727614821035
ARIANE 5 R/B            
1 28499U 04049H   20243.88563257 -.00000001  00000-0  72814-5 0  9993
2 28499  98.0585 345.9100 0092870  33.4696  76.4411 14.80042501847106
CZ-2D R/B               
1 28738U 05024B   20243.63129598  .00000239  00000-0  17491-4 0  9993
2 28738  97.3803 263.7359 0010321 290.4765  69.5358 15.12086836832611
SUZAKU (ASTRO-EII)      
1 28773U 05025A   20243.47560721  .00000732  00000-0  31153-4 0  9991
2 28773  31.3812 255.3176 0004535 232.3124 127.7112 15.17652949835219
ALOS (DAICHI)           
1 28931U 06002A   20243.97891986  .00000091  00000-0  26393-4 0  9996
2 28931  97.8510 226.0804 0000718 104.7328 255.3953 14.62734297778591
H-2A R/B                
1 28932U 06002B   20244.01391104  .00000522  00000-0  53692-4 0  9991
2 28932  98.3263 238.2619 0089982  77.8307 347.9165 14.92270027792373
AKARI (ASTRO-F)         
1 28939U 06005A   20243.92094956  .00003602  00000-0  95947-4 0  9996
2 28939  98.2378 226.6234 0094062  64.0475 297.0420 15.34575872792315
RESURS-DK 1             
1 29228U 06021A   20244.04240396  .00000037  00000-0  10157-4 0  9990
2 29228  69.9376 358.1144 0006217 317.7789  42.2892 15.02562188783956
GENESIS 1               
1 29252U 06029A   20243.97752424  .00000111  00000-0  15282-4 0  9993
2 29252  64.5224  57.8276 0005297  39.8821 320.2691 15.18199153779496
CZ-4B R/B               
1 29507U 06046C   20243.90538856 -.00000749  00000-0 -52915-4 0  9992
2 29507  97.7440 265.6177 0046327 271.7414  87.8504 15.00608568756535
CZ-2C R/B               
1 31114U 07010B   20244.17199759  .00000068  00000-0  50139-4 0  9994
2 31114  98.2538  92.0023 0060726  50.1094 310.5400 14.19329601693628
COSMO-SKYMED 1          
1 31598U 07023A   20244.21196985  .00000262  00000-0  39443-4 0  9998
2 31598  97.8873  66.2843 0001499  91.9039 268.2341 14.82159216715900
GENESIS 2               
1 31789U 07028A   20244.04001521  .00000406  00000-0  30380-4 0  9998
2 31789  64.5030  99.3557 0035805 234.6602 125.1173 15.17325862726487
COSMOS 2428             
1 31792U 07029A   20244.07573651 -.00000320  00000-0 -14784-3 0  9990
2 31792  70.9039 116.2451 0010652 314.1552  45.8691 14.12291920679407
SL-16 R/B               
1 31793U 07029B   20244.04699299 -.00000173  00000-0 -65544-4 0  9992
2 31793  70.9755  89.6684 0002392 265.3411 257.4684 14.14437848680270
KORONAS-FOTON           
1 33504U 09003A   20243.83896365  .00000253  00000-0  11521-4 0  9990
2 33504  82.4438 148.8182 0019844  26.2866 333.9369 15.15689310638657
H-2A R/B                
1 38341U 12025E   20244.15389565  .00000135  00000-0  23406-4 0  9991
2 38341  98.5092  44.0435 0055316 353.2833   6.7632 14.84063106448521
CUSAT 2 & FALCON 9 R/B  
1 39271U 13055G   20243.93600034  .00005785  00000-0  13978-3 0  9998
2 39271  80.9680 186.8589 0584169 306.2447  48.6081 14.48909728361514
SL-4 R/B                
1 39679U 14021B   20244.07745083 -.00000031  00000-0  16775-4 0  9993
2 39679  51.6164 121.0915 0171523 204.1929 155.0916 15.06468658350592
ALOS-2                  
1 39766U 14029A   20244.24543578 -.00000149  00000-0 -13137-4 0  9992
2 39766  97.9221 339.7721 0001501  89.6401 270.4979 14.79470900338755
CZ-2C R/B               
1 40306U 14071B   20243.85006091  .00003102  00000-0  66709-4 0  9994
2 40306  97.3291 191.0527 0013507 252.8498 107.1272 15.45368052325330
SL-27 R/B               
1 40354U 14084B   20243.96250593  .00000886  00000-0  22782-4 0  9990
2 40354  74.7362 233.9372 0036859  23.0302 337.2552 15.40325095319607
YAOGAN 29               
1 41038U 15069A   20244.19099527 -.00000018  00000-0  45121-5 0  9999
2 41038  98.0151 232.0578 0001935  52.1752 307.9635 14.80456863257337
ASTRO-H (HITOMI)        
1 41337U 16012A   20243.46058104  .00000250  00000-0  13392-4 0  9996
2 41337  31.0048 260.5190 0012332  82.4815 277.7220 14.98702904248610
SHENZHOU-11 MODULE      
1 41868U 16061G   20243.66493502  .00134610  16763-4  15512-3 0  9996
2 41868  42.7861  28.4919 0016074 332.5068 150.1024 16.08002941217975
HXMT (HUIYAN)           
1 42758U 17034A   20244.19770965  .00000137  00000-0  22239-4 0  9990
2 42758  43.0203 345.9415 0009175 139.6985 297.7381 15.08876654177163
CZ-2C R/B               
1 43521U 18054D   20243.74380437  .00000515  00000-0  30246-4 0  9990
2 43521  35.1537  82.1055 0081982  52.5481 308.2657 15.11052232120393
AEOLUS                  
1 43600U 18066A   20244.08819003  .00030083  00000-0  11852-3 0  9999
2 43600  96.7195 249.3630 0005300  93.7807 266.4072 15.86800910117207
SAOCOM 1A               
1 43641U 18076A   20244.15271411 -.00000001  00000-0  64773-5 0  9998
2 43641  97.8900  69.1999 0001480  81.6811 278.4568 14.82155596102665
CREW DRAGON DEMO-1 DEB  
1 44064U 19011B   20243.50516293  .00015313  00000-0  14839-3 0  9993
2 44064  51.6339 296.8098 0003683 351.8240   8.2695 15.66590749 84512
